CCSDS_OMM_VERS = 2.0
CREATION_DATE  = 
ORIGINATOR     = 

OBJECT_NAME    = YOTSUBA-KULOVER
OBJECT_ID      = 1998-067XN
CENTER_NAME    = EARTH
REF_FRAME      = TEME
TIME_SYSTEM    = UTC
MEAN_ELEMENT_THEORY = SGP/SGP4

EPOCH          = 2026-03-11T03:49:48.099072
MEAN_MOTION    = 15.81236605
ECCENTRICITY   = .0005363
INCLINATION    = 51.6213
RA_OF_ASC_NODE = 49.6653
ARG_OF_PERICENTER = 77.4147
MEAN_ANOMALY   = 282.7454

EPHEMERIS_TYPE = 0
CLASSIFICATION_TYPE = U
NORAD_CAT_ID   = 65941
ELEMENT_SET_NO = 999
REV_AT_EPOCH   = 2373
BSTAR          = .12153E-2
MEAN_MOTION_DOT = .251035E-2
MEAN_MOTION_DDOT = 0

CCSDS_OMM_VERS = 2.0
CREATION_DATE  = 
ORIGINATOR     = 

OBJECT_NAME    = E-KAGAKU-1
OBJECT_ID      = 1998-067XQ
CENTER_NAME    = EARTH
REF_FRAME      = TEME
TIME_SYSTEM    = UTC
MEAN_ELEMENT_THEORY = SGP/SGP4

EPOCH          = 2026-03-11T05:27:43.872768
MEAN_MOTION    = 15.80890541
ECCENTRICITY   = .0005837
INCLINATION    = 51.6235
RA_OF_ASC_NODE = 49.3873
ARG_OF_PERICENTER = 84.4935
MEAN_ANOMALY   = 275.6732

EPHEMERIS_TYPE = 0
CLASSIFICATION_TYPE = U
NORAD_CAT_ID   = 65943
ELEMENT_SET_NO = 999
REV_AT_EPOCH   = 2374
BSTAR          = .11956E-2
MEAN_MOTION_DOT = .242861E-2
MEAN_MOTION_DDOT = 0

CCSDS_OMM_VERS = 2.0
CREATION_DATE  = 
ORIGINATOR     = 

OBJECT_NAME    = HRC MONOBLOCK CAMERA
OBJECT_ID      = 1998-067XR
CENTER_NAME    = EARTH
REF_FRAME      = TEME
TIME_SYSTEM    = UTC
MEAN_ELEMENT_THEORY = SGP/SGP4

EPOCH          = 2026-03-11T05:39:10.098720
MEAN_MOTION    = 15.62390201
ECCENTRICITY   = .0003689
INCLINATION    = 51.6284
RA_OF_ASC_NODE = 57.7302
ARG_OF_PERICENTER = 99.5836
MEAN_ANOMALY   = 260.5574

EPHEMERIS_TYPE = 0
CLASSIFICATION_TYPE = U
NORAD_CAT_ID   = 66052
ELEMENT_SET_NO = 999
REV_AT_EPOCH   = 2263
BSTAR          = .65425E-3
MEAN_MOTION_DOT = .59053E-3
MEAN_MOTION_DDOT = 0

CCSDS_OMM_VERS = 2.0
CREATION_DATE  = 
ORIGINATOR     = 

OBJECT_NAME    = HTV-X1
OBJECT_ID      = 2025-241A
CENTER_NAME    = EARTH
REF_FRAME      = TEME
TIME_SYSTEM    = UTC
MEAN_ELEMENT_THEORY = SGP/SGP4

EPOCH          = 2026-03-10T11:33:06.281280
MEAN_MOTION    = 15.48562437
ECCENTRICITY   = .00079508
INCLINATION    = 51.6323
RA_OF_ASC_NODE = 68.4424
ARG_OF_PERICENTER = 177.3713
MEAN_ANOMALY   = 182.7319

EPHEMERIS_TYPE = 0
CLASSIFICATION_TYPE = U
NORAD_CAT_ID   = 66174
ELEMENT_SET_NO = 999
REV_AT_EPOCH   = 55447
BSTAR          = .17350063E-3
MEAN_MOTION_DOT = .8982E-4
MEAN_MOTION_DDOT = 0

CCSDS_OMM_VERS = 2.0
CREATION_DATE  = 
ORIGINATOR     = 

OBJECT_NAME    = SZ-21 MODULE
OBJECT_ID      = 2025-246C
CENTER_NAME    = EARTH
REF_FRAME      = TEME
TIME_SYSTEM    = UTC
MEAN_ELEMENT_THEORY = SGP/SGP4

EPOCH          = 2026-03-10T09:24:12.315744
MEAN_MOTION    = 15.68612654
ECCENTRICITY   = .00013212
INCLINATION    = 41.4733
RA_OF_ASC_NODE = 199.0379
ARG_OF_PERICENTER = 300.4317
MEAN_ANOMALY   = 59.6394

EPHEMERIS_TYPE = 0
CLASSIFICATION_TYPE = U
NORAD_CAT_ID   = 66515
ELEMENT_SET_NO = 999
REV_AT_EPOCH   = 1818
BSTAR          = .39494604E-3
MEAN_MOTION_DOT = .46134E-3
MEAN_MOTION_DDOT = 0

CCSDS_OMM_VERS = 2.0
CREATION_DATE  = 
ORIGINATOR     = 

OBJECT_NAME    = SHENZHOU-22
OBJECT_ID      = 2025-272A
CENTER_NAME    = EARTH
REF_FRAME      = TEME
TIME_SYSTEM    = UTC
MEAN_ELEMENT_THEORY = SGP/SGP4

EPOCH          = 2026-03-11T02:57:38.528640
MEAN_MOTION    = 15.60746125
ECCENTRICITY   = .0006951
INCLINATION    = 41.4661
RA_OF_ASC_NODE = 199.4375
ARG_OF_PERICENTER = 281.6206
MEAN_ANOMALY   = 78.3852

EPHEMERIS_TYPE = 0
CLASSIFICATION_TYPE = U
NORAD_CAT_ID   = 66645
ELEMENT_SET_NO = 999
REV_AT_EPOCH   = 26951
BSTAR          = .34529E-3
MEAN_MOTION_DOT = .29353E-3
MEAN_MOTION_DDOT = 0

CCSDS_OMM_VERS = 2.0
CREATION_DATE  = 
ORIGINATOR     = 

OBJECT_NAME    = SOYUZ-MS 28
OBJECT_ID      = 2025-275A
CENTER_NAME    = EARTH
REF_FRAME      = TEME
TIME_SYSTEM    = UTC
MEAN_ELEMENT_THEORY = SGP/SGP4

EPOCH          = 2026-03-11T04:35:18.514464
MEAN_MOTION    = 15.48575655
ECCENTRICITY   = .0007932
INCLINATION    = 51.6325
RA_OF_ASC_NODE = 64.9326
ARG_OF_PERICENTER = 179.9008
MEAN_ANOMALY   = 180.1983

EPHEMERIS_TYPE = 0
CLASSIFICATION_TYPE = U
NORAD_CAT_ID   = 66664
ELEMENT_SET_NO = 999
REV_AT_EPOCH   = 55658
BSTAR          = .1777E-3
MEAN_MOTION_DOT = .9215E-4
MEAN_MOTION_DDOT = 0

CCSDS_OMM_VERS = 2.0
CREATION_DATE  = 
ORIGINATOR     = 

OBJECT_NAME    = DUPLEX
OBJECT_ID      = 1998-067XS
CENTER_NAME    = EARTH
REF_FRAME      = TEME
TIME_SYSTEM    = UTC
MEAN_ELEMENT_THEORY = SGP/SGP4

EPOCH          = 2026-03-11T04:35:45.013344
MEAN_MOTION    = 15.56334996
ECCENTRICITY   = .0002544
INCLINATION    = 51.6293
RA_OF_ASC_NODE = 61.9382
ARG_OF_PERICENTER = 119.4650
MEAN_ANOMALY   = 240.6595

EPHEMERIS_TYPE = 0
CLASSIFICATION_TYPE = U
NORAD_CAT_ID   = 66906
ELEMENT_SET_NO = 999
REV_AT_EPOCH   = 1536
BSTAR          = .56317E-3
MEAN_MOTION_DOT = .40148E-3
MEAN_MOTION_DDOT = 0

CCSDS_OMM_VERS = 2.0
CREATION_DATE  = 
ORIGINATOR     = 

OBJECT_NAME    = ISS OBJECT XT
OBJECT_ID      = 1998-067XT
CENTER_NAME    = EARTH
REF_FRAME      = TEME
TIME_SYSTEM    = UTC
MEAN_ELEMENT_THEORY = SGP/SGP4

EPOCH          = 2026-03-11T04:11:28.857120
MEAN_MOTION    = 15.69772347
ECCENTRICITY   = .0004748
INCLINATION    = 51.6252
RA_OF_ASC_NODE = 58.0596
ARG_OF_PERICENTER = 87.5548
MEAN_ANOMALY   = 272.5993

EPHEMERIS_TYPE = 0
CLASSIFICATION_TYPE = U
NORAD_CAT_ID   = 66907
ELEMENT_SET_NO = 999
REV_AT_EPOCH   = 1541
BSTAR          = .14349E-2
MEAN_MOTION_DOT = .177829E-2
MEAN_MOTION_DDOT = 0

CCSDS_OMM_VERS = 2.0
CREATION_DATE  = 
ORIGINATOR     = 

OBJECT_NAME    = ISS OBJECT XU
OBJECT_ID      = 1998-067XU
CENTER_NAME    = EARTH
REF_FRAME      = TEME
TIME_SYSTEM    = UTC
MEAN_ELEMENT_THEORY = SGP/SGP4

EPOCH          = 2026-03-11T04:08:43.060704
MEAN_MOTION    = 15.69895705
ECCENTRICITY   = .0004897
INCLINATION    = 51.6261
RA_OF_ASC_NODE = 58.0443
ARG_OF_PERICENTER = 89.2541
MEAN_ANOMALY   = 270.9017

EPHEMERIS_TYPE = 0
CLASSIFICATION_TYPE = U
NORAD_CAT_ID   = 66908
ELEMENT_SET_NO = 999
REV_AT_EPOCH   = 1541
BSTAR          = .14503E-2
MEAN_MOTION_DOT = .180739E-2
MEAN_MOTION_DDOT = 0

CCSDS_OMM_VERS = 2.0
CREATION_DATE  = 
ORIGINATOR     = 

OBJECT_NAME    = SILVERSAT
OBJECT_ID      = 1998-067XV
CENTER_NAME    = EARTH
REF_FRAME      = TEME
TIME_SYSTEM    = UTC
MEAN_ELEMENT_THEORY = SGP/SGP4

EPOCH          = 2026-03-11T04:06:29.273760
MEAN_MOTION    = 15.72899065
ECCENTRICITY   = .0005462
INCLINATION    = 51.6250
RA_OF_ASC_NODE = 57.2816
ARG_OF_PERICENTER = 86.4811
MEAN_ANOMALY   = 273.6812

EPHEMERIS_TYPE = 0
CLASSIFICATION_TYPE = U
NORAD_CAT_ID   = 66909
ELEMENT_SET_NO = 999
REV_AT_EPOCH   = 1542
BSTAR          = .15793E-2
MEAN_MOTION_DOT = .224656E-2
MEAN_MOTION_DDOT = 0

CCSDS_OMM_VERS = 2.0
CREATION_DATE  = 
ORIGINATOR     = 

OBJECT_NAME    = ISS OBJECT XW
OBJECT_ID      = 1998-067XW
CENTER_NAME    = EARTH
REF_FRAME      = TEME
TIME_SYSTEM    = UTC
MEAN_ELEMENT_THEORY = SGP/SGP4

EPOCH          = 2026-03-11T04:05:01.311648
MEAN_MOTION    = 15.69060368
ECCENTRICITY   = .000538
INCLINATION    = 51.6254
RA_OF_ASC_NODE = 58.0226
ARG_OF_PERICENTER = 95.3448
MEAN_ANOMALY   = 264.8163

EPHEMERIS_TYPE = 0
CLASSIFICATION_TYPE = U
NORAD_CAT_ID   = 66910
ELEMENT_SET_NO = 999
REV_AT_EPOCH   = 1541
BSTAR          = .13049E-2
MEAN_MOTION_DOT = .156584E-2
MEAN_MOTION_DDOT = 0

